1 40922U 15050C   26196.22059279  .00000081  00000-0  51414-3 0  9995
2 40922  82.4870  60.8140 0014605 344.1220  15.9400 12.42884736490365
1 40958U 15057A   26196.18833433 -.00000085  00000-0 -52946-5 0  9997
2 40958  97.6686 188.1789 0016846 176.0755 184.0591 14.76812514579444
1 40959U 15057B   26196.19756461  .00000030  00000-0  10992-4 0  9996
2 40959  97.6626 189.6196 0016656 173.0260 187.1186 14.77425073579540
1 40960U 15057C   26196.23995035  .00000566  00000-0  85896-4 0  9994
2 40960  97.6591 190.8163 0016841 172.8721 187.2733 14.77533394579596
1 40961U 15057D   26196.17319470  .00000359  00000-0  56080-4 0  9994
2 40961  97.6520 194.1522 0017228 166.9666 193.1994 14.78201325579746
1 40967U 15058D   26196.12035816  .00001645  00000-0  15548-3 0  9997
2 40967  64.7725 192.1668 0132354  45.8405 315.3496 14.91088023117732
1 40968U 15058E   26196.08824156  .00002792  00000-0  22774-3 0  9999
2 40968  64.7734 171.5240 0121026  42.1982 318.8369 14.96087409120838
1 41173U 15078A   26196.21061095  .00000530  00000-0  20370-4 0  9999
2 41173  97.4557 201.8166 0011590 345.4384  14.6521 15.30852767588831
1 41179U 15081A   26196.12636404  .00000084  00000-0  54063-4 0  9991
2 41179  47.0032 229.9092 0002958 308.0519  52.0099 14.58887144561831
1 41182U 15081D   26196.04575331  .00000141  00000-0  66035-4 0  9993
2 41182  47.0006 229.7163 0003599 222.3063 137.7545 14.58917715561696
1 41184U 15081F   26195.53631945  .00000282  00000-0  95891-4 0  9990
2 41184  46.9980 140.9155 0003755 325.1012  34.9627 14.58938034562947
1 41185U 15081G   26196.19875101  .00000111  00000-0  59625-4 0  9994
2 41185  46.9999 138.1739 0002230 321.4660  38.6066 14.58882057563021
1 41187U 15081J   26196.02377845  .00000268  00000-0  92802-4 0  9997
2 41187  47.0055  50.5822 0002658 321.5969  38.4727 14.58910524564142
1 41188U 15081K   26195.98951134  .00000245  00000-0  88052-4 0  9998
2 41188  47.0018  49.3713 0003074 328.6670  31.4032 14.58897499564188
1 41189U 15081L   26196.17510661  .00000083  00000-0  53674-4 0  9999
2 41189  47.0015 138.2828 0001538 229.7096 130.3655 14.58905811563027
1 41338U 16012B   26196.03431086  .00003279  00000-0  13864-3 0  9994
2 41338  30.9967 138.6031 0008576   1.4028 358.6636 15.21141348572661
1 41339U 16012C   26196.20337428  .00002514  00000-0  11287-3 0  9997
2 41339  31.0036 147.7523 0008848 348.4818  11.5619 15.18768364572464
1 41556U 16033A   26196.20961420  .00002909  00000-0  13231-3 0  9995
2 41556  97.3829 271.4450 0014079 184.8524 175.2578 15.21434379562240
1 41599U 16040A   26196.18463677  .00002606  00000-0  12673-3 0  9991
2 41599  97.4469 255.7752 0009554  44.8870 315.3136 15.19264086557962
1 41603U 16040E   26196.19011883  .00001830  00000-0  59200-4 0  9992
2 41603  97.1505 191.4207 0008250 276.2287  83.8016 15.33277755559107
1 41727U 16049A   26196.18204363  .00000092  00000-0  40970-4 0  9997
2 41727  98.4010 203.5457 0001779  84.9356 275.2037 14.42218984522682
1 41783U 16059A   26195.93199874  .00000323  00000-0  65135-4 0  9999
2 41783  97.8336 191.5725 0032399 128.5786 231.8329 14.67225903523584
1 41789U 16059G   26196.24073008  .00000424  00000-0  79310-4 0  9992
2 41789  97.8010 198.3431 0027450  97.4073 263.0254 14.69349242524123
1 41857U 16068A   26196.17374259  .00000143  00000-0  68541-4 0  9994
2 41857  98.5843 206.9206 0003185 348.3782  11.7328 14.32722055505835
1 41877U 16074A   26196.15337914 -.00000222  00000-0 -80972-4 0  9990
2 41877  98.7528 269.4277 0002392  29.1640 330.9670 14.21607962498279
1 41898U 16081A   26196.21085543  .00000283  00000-0  69414-4 0  9999
2 41898  98.5365 197.2981 0019438 220.0554 139.9213 14.59971842508717
1 41914U 17002B   26196.19115609  .00007618  00000-0  17915-3 0  9993
2 41914  97.1946 202.8936 0007877  79.5052 280.7082 15.42230935526176
1 41948U 17008A   26196.15053494  .00002977  00000-0  14428-3 0  9994
2 41948  97.4098 254.9315 0006022 138.7095 221.4596 15.19286662521820
